KUIPER-00517            
1 69600U 26140J   26188.65130894  .00030016  00000+0  77831-3 0  9993
2 69600  51.8768 299.6234 0010749 262.3420  97.6347 15.38705874  4382
KUIPER-00520            
1 69601U 26140K   26188.66993500  .00010220  00000+0  28341-3 0  9993
2 69601  51.8815 299.7542 0006367 328.7620  31.2988 15.37515622  4383
KUIPER-00522            
1 69602U 26140L   26188.45238356  .00012639  00000+0  33628-3 0  9992
2 69602  51.8789 300.5443 0013274 236.5674 123.4044 15.38509840  4355
KUIPER-00528            
1 69603U 26140M   26188.47687105  .00015913  00000+0  43720-3 0  9997
2 69603  51.8780 300.6994 0005345 334.1966  25.8753 15.37370231  4359
KUIPER-00532            
1 69604U 26140N   26188.74411914  .00019565  00000+0  54736-3 0  9997
2 69604  51.8789 299.4908 0005903   4.7270 355.3771 15.36648603  4392
KUIPER-00533            
1 69605U 26140P   26188.65985291  .00012348  00000+0  33333-3 0  9994
2 69605  51.8786 299.6805 0007756 298.5010  61.5196 15.38136241  4389
KUIPER-00534            
1 69606U 26140Q   26188.64249356  .00012257  00000+0  32496-3 0  9997
2 69606  51.8817 299.5735 0013598 238.1693 121.7971 15.38647665  4381
KUIPER-00537            
1 69607U 26140R   26188.75003471  .00053654  00000+0  15875-2 0  9993
2 69607  51.8813 299.6126 0010420  31.2655 291.3626 15.34329341  4064
KUIPER-00538            
1 69608U 26140S   26188.66786641  .00012110  00000+0  33289-3 0  9993
2 69608  51.8807 299.7380 0006279 314.2186  45.8284 15.37600412  4382
KUIPER-00540            
1 69609U 26140T   26188.74107164  .00017067  00000+0  47593-3 0  9999
2 69609  51.8811 299.4785 0006649 355.6578   4.4349 15.36845449  4393
KUIPER-00541            
1 69610U 26140U   26188.66019166  .00017963  00000+0  47753-3 0  9999
2 69610  51.8808 299.6910 0006939 293.7405  66.2854 15.38289836  4386
KUIPER-00542            
1 69611U 26140V   26188.65850617  .00014889  00000+0  39797-3 0  9996
2 69611  51.8785 299.6720 0007922 275.3242  84.6841 15.38266363  4388
KUIPER-00543            
1 69612U 26140W   26188.48488020  .00016589  00000+0  46478-3 0  9996
2 69612  51.8788 300.7497 0007512  11.3158 348.7996 15.36715957  4354
KUIPER-00544            
1 69613U 26140X   26188.66229611  .00034299  00000+0  90711-3 0  9993
2 69613  51.8778 299.6956 0006525 290.5853  69.4434 15.38065455  4386
KUIPER-00546            
1 69614U 26140Y   26188.64361130  .00012823  00000+0  33770-3 0  9996
2 69614  51.8788 299.5768 0014616 235.8456 124.1146 15.38796022  4389
KUIPER-00547            
1 69615U 26140Z   26188.65516543  .00014877  00000+0  40392-3 0  9997
2 69615  51.8821 299.6577 0010943 260.1488  99.8264 15.37756625  4385
